start=new Date('2021-11-06T00:00:00.000Z').valueOf();
sats=[{"BSTAR":"0.00004217900000","CLASSIFICATION_TYPE":"U","RCS_SIZE":"LARGE","FILE":"3204412","MEAN_ANOMALY":"302.1246","SITE":"AFETR","COUNTRY_CODE":"US","PERIAPSIS":"545.983","TIME_SYSTEM":"UTC","OBJECT_ID":"2020-088BF","LAUNCH_DATE":"2020-11-25","GP_ID":"189046824","OBJECT_NAME":"STARLINK-1895","CENTER_NAME":"EARTH","DECAY_DATE":null,"TLE_LINE1":"1 47175U 20088BF  21309.69253027  .00000347  00000-0  42179-4 0  9992","APOAPSIS":"548.466","SEMIMAJOR_AXIS":"6925.359","REV_AT_EPOCH":"5322","NORAD_CAT_ID":"47175","INCLINATION":"53.0546","MEAN_ELEMENT_THEORY":"SGP4","RA_OF_ASC_NODE":"196.9354","MEAN_MOTION":"15.06396436","ARG_OF_PERICENTER":"57.9917","PERIOD":"95.592","ECCENTRICITY":"0.00017920","EPOCH":"2021-11-05T16:37:14.615328","TLE_LINE2":"2 47175  53.0546 196.9354 0001792  57.9917 302.1246 15.06396436 53226","OBJECT_TYPE":"PAYLOAD","EPHEMERIS_TYPE":"0","MEAN_MOTION_DOT":"0.00000347","MEAN_MOTION_DDOT":"0.0000000000000","REF_FRAME":"TEME","ELEMENT_SET_NO":"999"},{"OBJECT_ID":"2020-088BH","TIME_SYSTEM":"UTC","PERIAPSIS":"546.141","COUNTRY_CODE":"US","SITE":"AFETR","RCS_SIZE":"LARGE","FILE":"3204412","MEAN_ANOMALY":"294.3205","CLASSIFICATION_TYPE":"U","BSTAR":"0.00051045000000","APOAPSIS":"548.125","TLE_LINE1":"1 47177U 20088BH  21309.87588683  .00007335  00000-0  51045-3 0  9998","SEMIMAJOR_AXIS":"6925.268","DECAY_DATE":null,"CENTER_NAME":"EARTH","OBJECT_NAME":"STARLINK-1907","GP_ID":"189047051","LAUNCH_DATE":"2020-11-25","ARG_OF_PERICENTER":"65.7934","PERIOD":"95.590","RA_OF_ASC_NODE":"206.1294","MEAN_MOTION":"15.06426294","INCLINATION":"53.0519","MEAN_ELEMENT_THEORY":"SGP4","NORAD_CAT_ID":"47177","REV_AT_EPOCH":"5311","ELEMENT_SET_NO":"999","MEAN_MOTION_DDOT":"0.0000000000000","REF_FRAME":"TEME","EPHEMERIS_TYPE":"0","MEAN_MOTION_DOT":"0.00007335","TLE_LINE2":"2 47177  53.0519 206.1294 0001433  65.7934 294.3205 15.06426294 53114","OBJECT_TYPE":"PAYLOAD","ECCENTRICITY":"0.00014330","EPOCH":"2021-11-05T21:01:16.622112"},{"NORAD_CAT_ID":"47178","REV_AT_EPOCH":"5295","INCLINATION":"53.0560","MEAN_ELEMENT_THEORY":"SGP4","PERIOD":"95.591","ARG_OF_PERICENTER":"75.3793","RA_OF_ASC_NODE":"216.4985","MEAN_MOTION":"15.06418012","OBJECT_TYPE":"PAYLOAD","TLE_LINE2":"2 47178  53.0560 216.4985 0001830  75.3793 284.7399 15.06418012 52950","ECCENTRICITY":"0.00018300","EPOCH":"2021-11-05T18:57:52.049664","MEAN_MOTION_DDOT":"0.0000000000000","REF_FRAME":"TEME","EPHEMERIS_TYPE":"0","MEAN_MOTION_DOT":"0.00003271","ELEMENT_SET_NO":"999","CLASSIFICATION_TYPE":"U","BSTAR":"0.00023828000000","FILE":"3204412","RCS_SIZE":"LARGE","MEAN_ANOMALY":"284.7399","SITE":"AFETR","COUNTRY_CODE":"US","OBJECT_ID":"2020-088BJ","TIME_SYSTEM":"UTC","PERIAPSIS":"545.891","GP_ID":"189045323","LAUNCH_DATE":"2020-11-25","CENTER_NAME":"EARTH","OBJECT_NAME":"STARLINK-1912","DECAY_DATE":null,"TLE_LINE1":"1 47178U 20088BJ  21309.79018576  .00003271  00000-0  23828-3 0  9992","APOAPSIS":"548.426","SEMIMAJOR_AXIS":"6925.293"},{"ELEMENT_SET_NO":"999","EPHEMERIS_TYPE":"0","MEAN_MOTION_DOT":"0.00001153","MEAN_MOTION_DDOT":"0.0000000000000","REF_FRAME":"TEME","ECCENTRICITY":"0.00017640","EPOCH":"2021-11-05T21:51:43.448256","OBJECT_TYPE":"PAYLOAD","TLE_LINE2":"2 47179  53.0530 225.9661 0001764  66.7720 293.3455 15.06403475 52837","RA_OF_ASC_NODE":"225.9661","MEAN_MOTION":"15.06403475","PERIOD":"95.592","ARG_OF_PERICENTER":"66.7720","INCLINATION":"53.0530","MEAN_ELEMENT_THEORY":"SGP4","REV_AT_EPOCH":"5283","NORAD_CAT_ID":"47179","APOAPSIS":"548.425","TLE_LINE1":"1 47179U 20088BK  21309.91091954  .00001153  00000-0  96312-4 0  9994","SEMIMAJOR_AXIS":"6925.338","DECAY_DATE":null,"OBJECT_NAME":"STARLINK-1913","CENTER_NAME":"EARTH","LAUNCH_DATE":"2020-11-25","GP_ID":"189045565","PERIAPSIS":"545.981","TIME_SYSTEM":"UTC","OBJECT_ID":"2020-088BK","COUNTRY_CODE":"US","SITE":"AFETR","RCS_SIZE":"LARGE","FILE":"3204412","MEAN_ANOMALY":"293.3455","BSTAR":"0.00009631200000","CLASSIFICATION_TYPE":"U"},{"LAUNCH_DATE":"2020-11-25","GP_ID":"189046325","OBJECT_NAME":"STARLINK-1927","CENTER_NAME":"EARTH","DECAY_DATE":null,"TLE_LINE1":"1 47181U 20088BM  21309.95052578  .00000916  00000-0  80330-4 0  9999","APOAPSIS":"548.154","SEMIMAJOR_AXIS":"6925.280","BSTAR":"0.00008033000000","CLASSIFICATION_TYPE":"U","RCS_SIZE":"LARGE","FILE":"3204412","MEAN_ANOMALY":"286.7961","SITE":"AFETR","COUNTRY_CODE":"US","PERIAPSIS":"546.136","OBJECT_ID":"2020-088BM","TIME_SYSTEM":"UTC","ECCENTRICITY":"0.00014570","EPOCH":"2021-11-05T22:48:45.427392","TLE_LINE2":"2 47181  53.0527 195.7853 0001457  73.3187 286.7961 15.06422522 53263","OBJECT_TYPE":"PAYLOAD","MEAN_MOTION_DOT":"0.00000916","EPHEMERIS_TYPE":"0","REF_FRAME":"TEME","MEAN_MOTION_DDOT":"0.0000000000000","ELEMENT_SET_NO":"999","REV_AT_EPOCH":"5326","NORAD_CAT_ID":"47181","INCLINATION":"53.0527","MEAN_ELEMENT_THEORY":"SGP4","MEAN_MOTION":"15.06422522","RA_OF_ASC_NODE":"195.7853","PERIOD":"95.591","ARG_OF_PERICENTER":"73.3187"},{"INCLINATION":"53.0503","MEAN_ELEMENT_THEORY":"SGP4","REV_AT_EPOCH":"4450","NORAD_CAT_ID":"47349","RA_OF_ASC_NODE":"311.8260","MEAN_MOTION":"15.71607403","ARG_OF_PERICENTER":"12.1347","PERIOD":"91.626","ECCENTRICITY":"0.00038970","EPOCH":"2021-11-05T17:07:11.288640","OBJECT_TYPE":"PAYLOAD","TLE_LINE2":"2 47349  53.0503 311.8260 0003897  12.1347 347.9763 15.71607403 44507","ELEMENT_SET_NO":"999","EPHEMERIS_TYPE":"0","MEAN_MOTION_DOT":"0.00014720","REF_FRAME":"TEME","MEAN_MOTION_DDOT":"0.0000000000000","FILE":"3204412","RCS_SIZE":"LARGE","MEAN_ANOMALY":"347.9763","BSTAR":"0.00011662000000","CLASSIFICATION_TYPE":"U","PERIAPSIS":"351.681","OBJECT_ID":"2021-005A","TIME_SYSTEM":"UTC","SITE":"AFETR","COUNTRY_CODE":"US","OBJECT_NAME":"STARLINK-1952","CENTER_NAME":"EARTH","LAUNCH_DATE":"2021-01-20","GP_ID":"189046343","APOAPSIS":"356.928","TLE_LINE1":"1 47349U 21005A   21309.71332510  .00014720  00000-0  11662-3 0  9995","SEMIMAJOR_AXIS":"6732.440","DECAY_DATE":null},{"SEMIMAJOR_AXIS":"6925.296","TLE_LINE1":"1 47350U 21005B   21309.79019690  .00005891  00000-0  41387-3 0  9992","APOAPSIS":"548.166","DECAY_DATE":null,"CENTER_NAME":"EARTH","OBJECT_NAME":"STARLINK-2011","GP_ID":"189046570","LAUNCH_DATE":"2021-01-20","OBJECT_ID":"2021-005B","TIME_SYSTEM":"UTC","PERIAPSIS":"546.157","SITE":"AFETR","COUNTRY_CODE":"US","MEAN_ANOMALY":"288.5955","RCS_SIZE":"LARGE","FILE":"3204412","CLASSIFICATION_TYPE":"U","BSTAR":"0.00041387000000","ELEMENT_SET_NO":"999","MEAN_MOTION_DDOT":"0.0000000000000","REF_FRAME":"TEME","MEAN_MOTION_DOT":"0.00005891","EPHEMERIS_TYPE":"0","TLE_LINE2":"2 47350  53.0467 336.5608 0001450  71.5191 288.5955 15.06416988 44166","OBJECT_TYPE":"PAYLOAD","EPOCH":"2021-11-05T18:57:53.012160","ECCENTRICITY":"0.00014500","ARG_OF_PERICENTER":"71.5191","PERIOD":"95.591","RA_OF_ASC_NODE":"336.5608","MEAN_MOTION":"15.06416988","MEAN_ELEMENT_THEORY":"SGP4","INCLINATION":"53.0467","NORAD_CAT_ID":"47350","REV_AT_EPOCH":"4416"},{"MEAN_MOTION":"15.06412885","RA_OF_ASC_NODE":"296.9653","PERIOD":"95.591","ARG_OF_PERICENTER":"63.2345","REV_AT_EPOCH":"4470","NORAD_CAT_ID":"47351","MEAN_ELEMENT_THEORY":"SGP4","INCLINATION":"53.0517","EPHEMERIS_TYPE":"0","MEAN_MOTION_DOT":"0.00004272","REF_FRAME":"TEME","MEAN_MOTION_DDOT":"0.0000000000000","ELEMENT_SET_NO":"999","EPOCH":"2021-11-05T16:29:15.533376","ECCENTRICITY":"0.00015480","OBJECT_TYPE":"PAYLOAD","TLE_LINE2":"2 47351  53.0517 296.9653 0001548  63.2345 296.8802 15.06412885 44704","SITE":"AFETR","COUNTRY_CODE":"US","PERIAPSIS":"546.102","OBJECT_ID":"2021-005C","TIME_SYSTEM":"UTC","BSTAR":"0.00030543000000","CLASSIFICATION_TYPE":"U","MEAN_ANOMALY":"296.8802","FILE":"3204412","RCS_SIZE":"LARGE","DECAY_DATE":null,"SEMIMAJOR_AXIS":"6925.309","TLE_LINE1":"1 47351U 21005C   21309.68698534  .00004272  00000-0  30543-3 0  9995","APOAPSIS":"548.246","LAUNCH_DATE":"2021-01-20","GP_ID":"189045841","OBJECT_NAME":"STARLINK-2017","CENTER_NAME":"EARTH"},{"MEAN_MOTION":"15.06427965","RA_OF_ASC_NODE":"336.5878","PERIOD":"95.590","ARG_OF_PERICENTER":"87.0354","INCLINATION":"53.0548","MEAN_ELEMENT_THEORY":"SGP4","REV_AT_EPOCH":"4415","NORAD_CAT_ID":"47352","ELEMENT_SET_NO":"999","EPHEMERIS_TYPE":"0","MEAN_MOTION_DOT":"0.00007567","REF_FRAME":"TEME","MEAN_MOTION_DDOT":"0.0000000000000","ECCENTRICITY":"0.00013650","EPOCH":"2021-11-05T18:31:20.707680","TLE_LINE2":"2 47352  53.0548 336.5878 0001365  87.0354 273.0791 15.06427965 44158","OBJECT_TYPE":"PAYLOAD","PERIAPSIS":"546.183","TIME_SYSTEM":"UTC","OBJECT_ID":"2021-005D","SITE":"AFETR","COUNTRY_CODE":"US","RCS_SIZE":"LARGE","FILE":"3204412","MEAN_ANOMALY":"273.0791","BSTAR":"0.00052593000000","CLASSIFICATION_TYPE":"U","TLE_LINE1":"1 47352U 21005D   21309.77176745  .00007567  00000-0  52593-3 0  9990","APOAPSIS":"548.073","SEMIMAJOR_AXIS":"6925.263","DECAY_DATE":null,"OBJECT_NAME":"STARLINK-2034","CENTER_NAME":"EARTH","LAUNCH_DATE":"2021-01-20","GP_ID":"189046083"},{"DECAY_DATE":null,"SEMIMAJOR_AXIS":"6925.298","TLE_LINE1":"1 47353U 21005E   21309.39534573  .00009935  00000-0  68462-3 0  9999","APOAPSIS":"548.248","GP_ID":"189012755","LAUNCH_DATE":"2021-01-20","CENTER_NAME":"EARTH","OBJECT_NAME":"STARLINK-2045","SITE":"AFETR","COUNTRY_CODE":"US","TIME_SYSTEM":"UTC","OBJECT_ID":"2021-005E","PERIAPSIS":"546.078","CLASSIFICATION_TYPE":"U","BSTAR":"0.00068462000000","MEAN_ANOMALY":"271.9152","FILE":"3203969","RCS_SIZE":"LARGE","REF_FRAME":"TEME","MEAN_MOTION_DDOT":"0.0000000000000","MEAN_MOTION_DOT":"0.00009935","EPHEMERIS_TYPE":"0","ELEMENT_SET_NO":"999","TLE_LINE2":"2 47353  53.0543 283.2685 0001567  88.2016 271.9152 15.06416520 44872","OBJECT_TYPE":"PAYLOAD","EPOCH":"2021-11-05T09:29:17.871072","ECCENTRICITY":"0.00015670","PERIOD":"95.591","ARG_OF_PERICENTER":"88.2016","RA_OF_ASC_NODE":"283.2685","MEAN_MOTION":"15.06416520","NORAD_CAT_ID":"47353","REV_AT_EPOCH":"4487","MEAN_ELEMENT_THEORY":"SGP4","INCLINATION":"53.0543"}];
